{
    "links": {
        "self": "http://www.neowsapp.com/rest/v1/neo/3745105?api_key=iIulBulltgU6a56xZRHN4H3l9WmuAYTsLGpBGhQ2"
    },
    "id": "3745105",
    "neo_reference_id": "3745105",
    "name": "(2016 EB27)",
    "designation": "2016 EB27",
    "nasa_jpl_url": "http://ssd.jpl.nasa.gov/sbdb.cgi?sstr=3745105",
    "absolute_magnitude_h": 22.9,
    "estimated_diameter": {
        "kilometers": {
            "estimated_diameter_min": 0.0699125232,
            "estimated_diameter_max": 0.1563291544
        },
        "meters": {
            "estimated_diameter_min": 69.9125232246,
            "estimated_diameter_max": 156.3291544087
        },
        "miles": {
            "estimated_diameter_min": 0.0434416145,
            "estimated_diameter_max": 0.097138403
        },
        "feet": {
            "estimated_diameter_min": 229.3718026961,
            "estimated_diameter_max": 512.8909429502
        }
    },
    "is_potentially_hazardous_asteroid": false,
    "close_approach_data": [
        {
            "close_approach_date": "2011-03-08",
            "close_approach_date_full": "2011-Mar-08 10:23",
            "epoch_date_close_approach": 1299579780000,
            "relative_velocity": {
                "kilometers_per_second": "18.9755046445",
                "kilometers_per_hour": "68311.8167200459",
                "miles_per_hour": "42446.3063391863"
            },
            "miss_distance": {
                "astronomical": "0.209513336",
                "lunar": "81.500687704",
                "kilometers": "31342748.80219432",
                "miles": "19475481.015628816"
            },
            "orbiting_body": "Earth"
        },
        {
            "close_approach_date": "2013-01-27",
            "close_approach_date_full": "2013-Jan-27 06:13",
            "epoch_date_close_approach": 1359267180000,
            "relative_velocity": {
                "kilometers_per_second": "34.3079232189",
                "kilometers_per_hour": "123508.5235879903",
                "miles_per_hour": "76743.3934483265"
            },
            "miss_distance": {
                "astronomical": "0.0318872239",
                "lunar": "12.4041300971",
                "kilometers": "4770260.775653093",
                "miles": "2964102.5987269634"
            },
            "orbiting_body": "Merc"
        },
        {
            "close_approach_date": "2016-03-08",
            "close_approach_date_full": "2016-Mar-08 05:37",
            "epoch_date_close_approach": 1457415420000,
            "relative_velocity": {
                "kilometers_per_second": "20.9258274912",
                "kilometers_per_hour": "75332.9789682199",
                "miles_per_hour": "46808.9835150031"
            },
            "miss_distance": {
                "astronomical": "0.0878334382",
                "lunar": "34.1672074598",
                "kilometers": "13139695.269496634",
                "miles": "8164628.0416321892"
            },
            "orbiting_body": "Earth"
        },
        {
            "close_approach_date": "2020-07-14",
            "close_approach_date_full": "2020-Jul-14 23:14",
            "epoch_date_close_approach": 1594768440000,
            "relative_velocity": {
                "kilometers_per_second": "32.1449893048",
                "kilometers_per_hour": "115721.9614972512",
                "miles_per_hour": "71905.1265758892"
            },
            "miss_distance": {
                "astronomical": "0.0568707446",
                "lunar": "22.1227196494",
                "kilometers": "8507742.257474002",
                "miles": "5286465.9021131476"
            },
            "orbiting_body": "Merc"
        },
        {
            "close_approach_date": "2021-03-06",
            "close_approach_date_full": "2021-Mar-06 05:28",
            "epoch_date_close_approach": 1615008480000,
            "relative_velocity": {
                "kilometers_per_second": "23.8159914022",
                "kilometers_per_hour": "85737.5690478959",
                "miles_per_hour": "53273.9911675662"
            },
            "miss_distance": {
                "astronomical": "0.0830605014",
                "lunar": "32.3105350446",
                "kilometers": "12425674.090572018",
                "miles": "7720955.8544011284"
            },
            "orbiting_body": "Earth"
        }
    ],
    "orbital_data": {
        "orbit_id": "8",
        "orbit_determination_date": "2017-04-06 08:27:51",
        "first_observation_date": "2016-03-03",
        "last_observation_date": "2016-03-13",
        "data_arc_in_days": 10,
        "observations_used": 75,
        "orbit_uncertainty": "8",
        "minimum_orbit_intersection": ".0522515",
        "jupiter_tisserand_invariant": "6.468",
        "epoch_osculation": "2457452.5",
        "eccentricity": ".5353562908889397",
        "semi_major_axis": ".8825409900028743",
        "inclination": "34.67649962071039",
        "ascending_node_longitude": "343.7037749144695",
        "orbital_period": "302.831295994258",
        "perihelion_distance": ".4100671190374828",
        "perihelion_argument": "320.2012913316593",
        "aphelion_distance": "1.355014860968266",
        "perihelion_time": "2457525.763723460903",
        "mean_anomaly": "272.9054995477575",
        "mean_motion": "1.188780699887855",
        "equinox": "J2000",
        "orbit_class": {
            "orbit_class_type": "ATE",
            "orbit_class_description": "Near-Earth asteroid orbits similar to that of 2062 Aten",
            "orbit_class_range": "a (semi-major axis) < 1.0 AU; q (perihelion) > 0.983 AU"
        }
    },
    "is_sentry_object": false
}